NORAD_CAT_ID,OBJECT_NAME,OBJECT_TYPE,EPOCH,MEAN_MOTION,ECCENTRICITY,INCLINATION,RA_OF_ASC_NODE,ARG_OF_PERICENTER,MEAN_ANOMALY,BSTAR,MEAN_MOTION_DOT,MEAN_MOTION_DDOT,TLE_LINE0,TLE_LINE1,TLE_LINE2,SEMIMAJOR_AXIS,PERIOD,APOGEE,PERIGEE,DECAYED
55406.0,STARLINK-5630,PAYLOAD,2023-03-11 16:14:19,15.69920108,0.0003436,69.998,340.0743,266.5321,93.5482,-1.6861e-05,-2.239e-05,0.0,0 STARLINK-5630,1 55406U 23014R   23070.67661910 -.00002239  00000-0 -16861-4 0  9992,2 55406  69.9980 340.0743 0003436 266.5321  93.5482 15.69920108  7262,6737.263,91.724,361.442,356.813,0.0
55406.0,STARLINK-5630,PAYLOAD,2023-03-12 02:56:35,15.69931036,0.0003177,69.9976,338.8205,268.2036,91.8795,4.7299e-05,5.48e-05,0.0,0 STARLINK-5630,1 55406U 23014R   23071.12263484  .00005480  00000-0  47299-4 0  9995,2 55406  69.9976 338.8205 0003177 268.2036  91.8795 15.69931036  6392,6737.231,91.724,361.237,356.956,0.0
55406.0,STARLINK-5630,PAYLOAD,2023-03-12 16:42:21,15.69937695,0.0003156,69.9981,337.2084,256.5504,103.534,6.0287e-05,7.046e-05,0.0,0 STARLINK-5630,1 55406U 23014R   23071.69608123  .00007046  00000-0  60287-4 0  9992,2 55406  69.9981 337.2084 0003156 256.5504 103.5340 15.69937695  7422,6737.212,91.723,361.204,356.951,0.0
55406.0,STARLINK-5630,PAYLOAD,2023-03-12 21:17:37,15.69915703,0.0003574,69.999,336.6699,257.9837,102.0958,-1.7418e-05,-2.306e-05,0.0,0 STARLINK-5630,1 55406U 23014R   23071.88723622 -.00002306  00000-0 -17418-4 0  9999,2 55406  69.9990 336.6699 0003574 257.9837 102.0958 15.69915703  6519,6737.275,91.725,361.548,356.732,0.0
55406.0,STARLINK-5630,PAYLOAD,2023-03-13 14:07:12,15.69503383,0.000195,69.9968,334.7007,244.2148,115.8847,-0.00096548,-0.00112752,0.0,0 STARLINK-5630,1 55406U 23014R   23072.58833722 -.00112752  00000-0 -96548-3 0  9997,2 55406  69.9968 334.7007 0001950 244.2148 115.8847 15.69503383  7568,6738.455,91.749,361.634,359.006,0.0
55406.0,STARLINK-5630,PAYLOAD,2023-03-14 02:20:54,15.69935337,0.0004134,69.9988,333.2692,278.093,81.9797,5.044e-05,5.86e-05,0.0,0 STARLINK-5630,1 55406U 23014R   23073.09785136  .00005860  00000-0  50440-4 0  9990,2 55406  69.9988 333.2692 0004134 278.0930  81.9797 15.69935337  6705,6737.219,91.724,361.869,356.299,0.0
55406.0,STARLINK-5630,PAYLOAD,2023-03-14 20:41:55,15.69925612,0.0003789,69.9978,331.1153,256.9565,103.1208,4.3747e-05,5.051e-05,0.0,0 STARLINK-5630,1 55406U 23014R   23073.86244887  .00005051  00000-0  43747-4 0  9992,2 55406  69.9978 331.1153 0003789 256.9565 103.1208 15.69925612  7763,6737.247,91.724,361.665,356.559,0.0
55406.0,STARLINK-5630,PAYLOAD,2023-03-15 02:48:56,15.69923477,0.0003453,69.9976,330.396,263.5673,96.5129,2.1075e-05,2.322e-05,0.0,0 STARLINK-5630,1 55406U 23014R   23074.11731698  .00002322  00000-0  21075-4 0  9990,2 55406  69.9976 330.3960 0003453 263.5673  96.5129 15.69923477  6864,6737.253,91.724,361.444,356.792,0.0
55406.0,STARLINK-5630,PAYLOAD,2023-03-15 16:34:42,15.69914882,0.0003299,69.9981,328.7839,266.7054,93.3765,8.4865e-05,0.0001,0.0,0 STARLINK-5630,1 55406U 23014R   23074.69077342  .00010000  00000-0  84865-4 0  9990,2 55406  69.9981 328.7839 0003299 266.7054  93.3765 15.69914882  6953,6737.278,91.725,361.365,356.92,0.0
55406.0,STARLINK-5630,PAYLOAD,2023-03-16 03:16:58,15.69911885,0.0003691,69.9981,327.5319,264.2572,95.8203,2.4387e-05,2.719e-05,0.0,0 STARLINK-5630,1 55406U 23014R   23075.13678901  .00002719  00000-0  24387-4 0  9999,2 55406  69.9981 327.5319 0003691 264.2572  95.8203 15.69911885  7020,6737.286,91.725,361.638,356.664,0.0
55406.0,STARLINK-5630,PAYLOAD,2023-03-17 09:52:01,15.69921646,0.000351,70.0004,323.9465,266.377,93.7025,1.4714e-05,1.557e-05,0.0,0 STARLINK-5630,1 55406U 23014R   23076.41112800  .00001557  00000-0  14714-4 0  9994,2 55406  70.0004 323.9465 0003510 266.3770  93.7025 15.69921646  7221,6737.258,91.724,361.488,356.758,0.0
55406.0,STARLINK-5630,PAYLOAD,2023-03-18 01:09:31,15.69954875,0.0003822,70.0002,322.1573,267.5,92.5758,9.6774e-05,0.00011455,0.0,0 STARLINK-5630,1 55406U 23014R   23077.04828556  .00011455  00000-0  96774-4 0  9990,2 55406  70.0002 322.1573 0003822 267.5000  92.5758 15.69954875  7326,6737.163,91.722,361.603,356.453,0.0
55406.0,STARLINK-5630,PAYLOAD,2023-03-18 19:30:33,15.69930561,0.0003441,69.9987,320.0057,272.6821,87.398,8.1651e-05,9.619e-05,0.0,0 STARLINK-5630,1 55406U 23014R   23077.81289033  .00009619  00000-0  81651-4 0  9993,2 55406  69.9987 320.0057 0003441 272.6821  87.3980 15.69930561  7442,6737.233,91.724,361.416,356.779,0.0
55406.0,STARLINK-5630,PAYLOAD,2023-03-18 22:34:03,15.69934032,0.0003051,69.9988,319.648,259.7165,100.3687,9.5298e-05,0.00011266,0.0,0 STARLINK-5630,1 55406U 23014R   23077.94032253  .00011266  00000-0  95298-4 0  9990,2 55406  69.9988 319.6480 0003051 259.7165 100.3687 15.69934032  8405,6737.223,91.724,361.143,357.032,0.0
55406.0,STARLINK-5630,PAYLOAD,2023-03-19 09:16:19,15.69919072,0.0003179,69.9992,318.3942,263.9909,96.0924,1.8192e-05,1.975e-05,0.0,0 STARLINK-5630,1 55406U 23014R   23078.38634195  .00001975  00000-0  18192-4 0  9996,2 55406  69.9992 318.3942 0003179 263.9909  96.0924 15.69919072  7538,6737.266,91.724,361.272,356.989,0.0
55406.0,STARLINK-5630,PAYLOAD,2023-03-19 18:26:50,15.69922078,0.0003021,69.9995,317.3199,268.1271,91.9578,2.9667e-05,3.356e-05,0.0,0 STARLINK-5630,1 55406U 23014R   23078.76864449  .00003356  00000-0  29667-4 0  9999,2 55406  69.9995 317.3199 0003021 268.1271  91.9578 15.69922078  8539,6737.257,91.724,361.157,357.087,0.0
55406.0,STARLINK-5630,PAYLOAD,2023-03-20 03:37:21,15.69939334,0.0003137,69.9993,316.2441,269.0,91.0837,0.00013994,0.00016657,0.0,0 STARLINK-5630,1 55406U 23014R   23079.15094232  .00016657  00000-0  13994-3 0  9991,2 55406  69.9993 316.2441 0003137 269.0000  91.0837 15.69939334  7657,6737.208,91.723,361.186,356.959,0.0
55406.0,STARLINK-5630,PAYLOAD,2023-03-20 17:23:07,15.69925528,0.0003496,69.9997,314.6337,264.7995,95.2801,4.0101e-05,4.612e-05,0.0,0 STARLINK-5630,1 55406U 23014R   23079.72439507  .00004612  00000-0  40101-4 0  9991,2 55406  69.9997 314.6337 0003496 264.7995  95.2801 15.69925528  8681,6737.247,91.724,361.467,356.757,0.0
55406.0,STARLINK-5630,PAYLOAD,2023-03-21 01:01:53,15.69941501,0.0003246,69.9986,313.7377,267.2594,92.823,0.00011148,0.00013222,0.0,0 STARLINK-5630,1 55406U 23014R   23080.04297618  .00013222  00000-0  11148-3 0  9998,2 55406  69.9986 313.7377 0003246 267.2594  92.8230 15.69941501  7798,6737.201,91.723,361.253,356.879,0.0
55406.0,STARLINK-5630,PAYLOAD,2023-03-22 01:29:55,15.69930681,0.0003026,69.9975,310.8708,279.8152,80.2702,8.0401e-05,9.468e-05,0.0,0 STARLINK-5630,1 55406U 23014R   23081.06244883  .00009468  00000-0  80401-4 0  9993,2 55406  69.9975 310.8708 0003026 279.8152  80.2702 15.69930681  7957,6737.232,91.724,361.136,357.059,0.0
55406.0,STARLINK-5630,PAYLOAD,2023-03-22 16:47:26,15.69940595,0.0003377,69.9974,309.0793,268.0885,91.9924,8.758e-05,0.00010338,0.0,0 STARLINK-5630,1 55406U 23014R   23081.69960913  .00010338  00000-0  87580-4 0  9994,2 55406  69.9974 309.0793 0003377 268.0885  91.9924 15.69940595  8997,6737.204,91.723,361.344,356.794,0.0
55406.0,STARLINK-5630,PAYLOAD,2023-03-23 00:26:12,15.69916938,0.0002644,69.9998,308.1845,300.3553,59.7381,-3.1851e-05,-4.039e-05,0.0,0 STARLINK-5630,1 55406U 23014R   23082.01820122 -.00004039  00000-0 -31851-4 0  9991,2 55406  69.9998 308.1845 0002644 300.3553  59.7381 15.69916938  8105,6737.272,91.725,360.918,357.355,0.0
55406.0,STARLINK-5630,PAYLOAD,2023-03-23 18:47:13,15.69935159,0.0003313,69.9983,306.0321,281.3828,78.6995,5.079e-05,5.901e-05,0.0,0 STARLINK-5630,1 55406U 23014R   23082.78279418  .00005901  00000-0  50790-4 0  9991,2 55406  69.9983 306.0321 0003313 281.3828  78.6995 15.69935159  8222,6737.22,91.724,361.317,356.852,0.0
55406.0,STARLINK-5630,PAYLOAD,2023-03-24 02:25:58,15.6995512,0.0003651,69.998,305.1361,277.4493,82.6287,0.00011365,0.00013493,0.0,0 STARLINK-5630,1 55406U 23014R   23083.10136890  .00013493  00000-0  11365-3 0  9993,2 55406  69.9980 305.1361 0003651 277.4493  82.6287 15.69955120  8276,6737.162,91.722,361.487,356.568,0.0
55406.0,STARLINK-5630,PAYLOAD,2023-03-24 16:11:44,15.69934198,0.0003543,69.9993,303.5235,271.9129,88.1661,8.6659e-06,8.3e-06,0.0,0 STARLINK-5630,1 55406U 23014R   23083.67481987  .00000830  00000-0  86659-5 0  9996,2 55406  69.9993 303.5235 0003543 271.9129  88.1661 15.69934198  8366,6737.222,91.724,361.474,356.7,0.0
55406.0,STARLINK-5630,PAYLOAD,2023-03-24 20:47:00,15.69895089,0.0004041,69.9987,302.9885,281.5143,78.5599,-0.00012262,-0.00014916,0.0,0 STARLINK-5630,1 55406U 23014R   23083.86597933 -.00014916  00000-0 -12262-3 0  9995,2 55406  69.9987 302.9885 0004041 281.5143  78.5599 15.69895089  8391,6737.334,91.726,361.922,356.477,0.0
55406.0,STARLINK-5630,PAYLOAD,2023-03-24 22:18:45,15.6989471,0.0003581,69.9978,302.8087,280.8457,79.2335,-0.00011892,-0.00014471,0.0,0 STARLINK-5630,1 55406U 23014R   23083.92969709 -.00014471  00000-0 -11892-3 0  9990,2 55406  69.9978 302.8087 0003581 280.8457  79.2335 15.69894710  9344,6737.335,91.726,361.613,356.788,0.0
55406.0,STARLINK-5630,PAYLOAD,2023-03-25 21:15:02,15.69947378,0.0002928,69.9999,300.1217,268.3367,91.7494,0.00018874,0.00022563,0.0,0 STARLINK-5630,1 55406U 23014R   23084.88544773  .00022563  00000-0  18874-3 0  9992,2 55406  69.9999 300.1217 0002928 268.3367  91.7494 15.69947378  8554,6737.185,91.723,361.022,357.077,0.0
55406.0,STARLINK-5630,PAYLOAD,2023-03-26 01:50:18,15.69925982,0.0002894,69.9991,299.5804,285.777,74.3106,8.1214e-05,9.564e-05,0.0,0 STARLINK-5630,1 55406U 23014R   23085.07660348  .00009564  00000-0  81214-4 0  9996,2 55406  69.9991 299.5804 0002894 285.7770  74.3106 15.69925982  8589,6737.246,91.724,361.061,357.161,0.0
55406.0,STARLINK-5630,PAYLOAD,2023-03-26 21:43:04,15.69937338,0.0003307,69.9986,297.2542,282.422,77.6605,3.9553e-05,4.548e-05,0.0,0 STARLINK-5630,1 55406U 23014R   23085.90491615  .00004548  00000-0  39553-4 0  9993,2 55406  69.9986 297.2542 0003307 282.4220  77.6605 15.69937338  9658,6737.213,91.723,361.306,356.85,0.0
